0 ARIANE 1 DEB
1 39107U 86019VV  13281.26288286  .00000726  00000-0  43463-3 0   327
2 39107 099.1658 309.2871 0162724 039.5216 321.7616 14.03858120437099
0 ARIANE 1 DEB
1 39107U 86019VV  13284.25623323  .00000611  00000-0  36994-3 0   339
2 39107 099.1651 312.3043 0162455 031.1952 329.8473 14.03860131437516
0 ARIANE 1 DEB
1 39107U 86019VV  13287.32085214  .00000504  00000-0  31008-3 0   344
2 39107 099.1635 315.3929 0162441 022.8253 337.9880 14.03861817437941
0 ARIANE 1 DEB
1 39107U 86019VV  13288.88879277  .00000474  00000-0  29304-3 0   359
2 39107 099.1625 316.9720 0162102 018.6193 342.0785 14.03863030438161
0 ARIANE 1 DEB
1 39107U 86019VV  13291.31196233  .00000520  00000-0  31920-3 0   365
2 39107 099.1618 319.4124 0162363 011.6271 348.8642 14.03866800438500
0 ARIANE 1 DEB
1 39107U 86019VV  13294.30527669  .00000609  00000-0  36938-3 0   371
2 39107 099.1597 322.4254 0162657 003.2575 356.9633 14.03872150438925
